[{"OBJECT_NAME":"STARLING 4","OBJECT_ID":"2023-100A","EPOCH":"2026-03-07T00:40:50.723040","MEAN_MOTION":15.06148396,"ECCENTRICITY":0.00078037,"INCLINATION":99.5115,"RA_OF_ASC_NODE":59.9711,"ARG_OF_PERICENTER":83.0949,"MEAN_ANOMALY":277.1159,"EPHEMERIS_TYPE":0,"CLASSIFICATION_TYPE":"U","NORAD_CAT_ID":57386,"ELEMENT_SET_NO":999,"REV_AT_EPOCH":14452,"BSTAR":5.567556e-6,"MEAN_MOTION_DOT":-9.0e-8,"MEAN_MOTION_DDOT":0},{"OBJECT_NAME":"STARLINK-35296","OBJECT_ID":"2025-218L","EPOCH":"2026-03-09T15:00:33.034176","MEAN_MOTION":15.05649542,"ECCENTRICITY":0.000221,"INCLINATION":97.6028,"RA_OF_ASC_NODE":292.9464,"ARG_OF_PERICENTER":80.139,"MEAN_ANOMALY":280.0086,"EPHEMERIS_TYPE":0,"CLASSIFICATION_TYPE":"U","NORAD_CAT_ID":65801,"ELEMENT_SET_NO":999,"REV_AT_EPOCH":2496,"BSTAR":0.0001944,"MEAN_MOTION_DOT":2.745e-5,"MEAN_MOTION_DDOT":0}]
